STARLINK-31603          
1 59201U 24046A   26068.48089547 -.00004777  00000+0 -14927-3 0  9992
2 59201  53.1597 156.5924 0001907  78.3131 281.8084 15.30195025113019
TEVEL2-3                
1 63218U 25052J   26068.64540225  .00020365  00000+0  69446-3 0  9991
2 63218  97.3994 324.7775 0004761 105.7353 254.4413 15.30377031 54855
